NORAD_CAT_ID,OBJECT_NAME,OBJECT_TYPE,EPOCH,MEAN_MOTION,ECCENTRICITY,INCLINATION,RA_OF_ASC_NODE,ARG_OF_PERICENTER,MEAN_ANOMALY,BSTAR,MEAN_MOTION_DOT,MEAN_MOTION_DDOT,TLE_LINE0,TLE_LINE1,TLE_LINE2,SEMIMAJOR_AXIS,PERIOD,APOGEE,PERIGEE,DECAYED
52291.0,STARLINK-3773,PAYLOAD,2022-08-09 14:00:01,15.08857466,0.0002266,53.2136,211.4345,47.432,240.9633,-0.0027955,-0.00044527,0.0,0 STARLINK-3773,1 52291U 22041AG  22221.58334491 -.00044527  00000-0 -27955-2 0  9998,2 52291  53.2136 211.4345 0002266  47.4320 240.9633 15.08857466  1308,6917.8269999999975,95.436,541.26,538.124,0.0
52291.0,STARLINK-3773,PAYLOAD,2022-08-09 22:00:00,15.08820716,0.0002125,53.2138,209.9367,52.792,247.2042,0.0023914,0.00037957,0.0,0 STARLINK-3773,1 52291U 22041AG  22221.91667824  .00037957  00000-0  23914-2 0  9992,2 52291  53.2138 209.9367 0002125  52.7920 247.2042 15.08820716  1307,6917.939,95.439,541.274,538.3340000000002,0.0
52291.0,STARLINK-3773,PAYLOAD,2022-08-10 06:00:00,15.08841669,0.0002301,53.2137,208.442,49.2429,262.3433,-0.00056708,-9.303e-05,0.0,0 STARLINK-3773,1 52291U 22041AG  22222.25001157 -.00009303  00000-0 -56708-3 0  9995,2 52291  53.2137 208.4420 0002301  49.2429 262.3433 15.08841669 18345,6917.875,95.437,541.332,538.148,0.0
52291.0,STARLINK-3773,PAYLOAD,2022-08-10 14:00:01,15.08860526,0.0002247,53.2134,206.945,49.0152,274.1611,-0.0021160999999999,-0.00033829,0.0,0 STARLINK-3773,1 52291U 22041AG  22222.58334491 -.00033829  00000-0 -21161-2 0  9995,2 52291  53.2134 206.9450 0002247  49.0152 274.1611 15.08860526  1308,6917.818,95.436,541.237,538.128,0.0
52291.0,STARLINK-3773,PAYLOAD,2022-08-10 22:00:00,15.08841329,0.0002103,53.2137,205.4474,54.4139,280.3672,0.00052143,8.021e-05,0.0,0 STARLINK-3773,1 52291U 22041AG  22222.91667824  .00008021  00000-0  52143-3 0  9990,2 52291  53.2137 205.4474 0002103  54.4139 280.3672 15.08841329  1303,6917.876,95.437,541.196,538.286,0.0
52291.0,STARLINK-3773,PAYLOAD,2022-08-11 06:00:02,15.08829169,0.0002248,53.2136,203.9527,49.7393,296.7115,-0.0011974,-0.00019289,0.0,0 STARLINK-3773,1 52291U 22041AG  22223.25002315 -.00019289  00000-0 -11974-2 0  9992,2 52291  53.2136 203.9527 0002248  49.7393 296.7115 15.08829169 18492,6917.913000000001,95.438,541.3340000000002,538.2230000000002,0.0
52291.0,STARLINK-3773,PAYLOAD,2022-08-11 14:00:01,15.08840417,0.000218,53.2133,202.4556,49.4156,308.5423,-0.0022414,-0.00035785,0.0,0 STARLINK-3773,1 52291U 22041AG  22223.58334491 -.00035785  00000-0 -22414-2 0  9991,2 52291  53.2133 202.4556 0002180  49.4156 308.5423 15.08840417  1309,6917.879,95.438,541.252,538.236,0.0
52291.0,STARLINK-3773,PAYLOAD,2022-08-11 22:00:00,15.08818265,0.0002086999999999,53.2136,200.9582,55.5038,314.0388,0.0018992,0.00030049,0.0,0 STARLINK-3773,1 52291U 22041AG  22223.91667824  .00030049  00000-0  18992-2 0  9999,2 52291  53.2136 200.9582 0002087  55.5038 314.0388 15.08818265 18594,6917.946999999999,95.439,541.256,538.368,0.0
52291.0,STARLINK-3773,PAYLOAD,2022-08-12 14:00:01,15.08855658,0.0002214,53.2134,197.9662,51.8493,340.8640000000001,-0.0018922999999999,-0.00030292,0.0,0 STARLINK-3773,1 52291U 22041AG  22224.58334491 -.00030292  00000-0 -18923-2 0  9990,2 52291  53.2134 197.9662 0002214  51.8493 340.8640 15.08855658 18698,6917.833000000001,95.437,541.229,538.1659999999998,0.0
52291.0,STARLINK-3773,PAYLOAD,2022-08-12 22:00:01,15.08837324,0.000216,53.2137,196.4689,57.1642,347.2103,0.0016408,0.0002592,0.0,0 STARLINK-3773,1 52291U 22041AG  22224.91668981  .00025920  00000-0  16408-2 0  9997,2 52291  53.2137 196.4689 0002160  57.1642 347.2103 15.08837324  1304,6917.889,95.438,541.248,538.259,0.0
52291.0,STARLINK-3773,PAYLOAD,2022-08-13 04:00:00,15.08861676,0.0002259,53.2137,195.348,53.0357,269.9757,-0.0025506,-0.00040678,0.0,0 STARLINK-3773,1 52291U 22041AG  22225.16667824 -.00040678  00000-0 -25506-2 0  9998,2 52291  53.2137 195.3480 0002259  53.0357 269.9757 15.08861676 18780,6917.814,95.436,541.242,538.116,0.0
52291.0,STARLINK-3773,PAYLOAD,2022-08-13 14:00:01,15.08839129,0.0002189999999999,53.2138,193.4767,51.574,15.9375,-0.0018997,-0.00030395,0.0,0 STARLINK-3773,1 52291U 22041AG  22225.58334491 -.00030395  00000-0 -18997-2 0  9996,2 52291  53.2138 193.4767 0002190  51.5740  15.9375 15.08839129  1304,6917.8830000000025,95.438,541.263,538.2330000000002,0.0
52291.0,STARLINK-3773,PAYLOAD,2022-08-13 22:00:00,15.08826599,0.0002168,53.2141,191.9796,56.5579,22.5331,0.0011790999999999,0.0001851999999999,0.0,0 STARLINK-3773,1 52291U 22041AG  22225.91667824  .00018520  00000-0  11791-2 0  9991,2 52291  53.2141 191.9796 0002168  56.5579  22.5331 15.08826599  1306,6917.920999999999,95.438,541.286,538.2869999999998,0.0
52291.0,STARLINK-3773,PAYLOAD,2022-08-14 14:00:01,15.08855575,0.0002266999999999,53.2145,188.9874,53.2596,49.011,-0.0015821,-0.00025391,0.0,0 STARLINK-3773,1 52291U 22041AG  22226.58334491 -.00025391  00000-0 -15821-2 0  9990,2 52291  53.2145 188.9874 0002267  53.2596  49.0110 15.08855575  1301,6917.833000000001,95.437,541.266,538.13,0.0
52291.0,STARLINK-3773,PAYLOAD,2022-08-14 22:00:00,15.08856608,0.0002245,53.2148,187.4903,57.2387,56.6324,-0.00011227,-2.076e-05,0.0,0 STARLINK-3773,1 52291U 22041AG  22226.91667824 -.00002076  00000-0 -11227-3 0  9998,2 52291  53.2148 187.4903 0002245  57.2387  56.6324 15.08856608  1308,6917.83,95.437,541.248,538.1419999999998,0.0
52291.0,STARLINK-3773,PAYLOAD,2022-08-15 14:00:01,15.08844376,0.0002247,53.215,184.4982,53.3629,83.7089,-0.0014257,-0.0002290999999999,0.0,0 STARLINK-3773,1 52291U 22041AG  22227.58334491 -.00022910  00000-0 -14257-2 0  9997,2 52291  53.2150 184.4982 0002247  53.3629  83.7089 15.08844376  1301,6917.8669999999975,95.437,541.286,538.178,0.0
52291.0,STARLINK-3773,PAYLOAD,2022-08-15 22:00:00,15.08845129,0.0002248,53.2153,183.0013,57.5515,91.1094,0.00042636,6.505e-05,0.0,0 STARLINK-3773,1 52291U 22041AG  22227.91667824  .00006505  00000-0  42636-3 0  9996,2 52291  53.2153 183.0013 0002248  57.5515  91.1094 15.08845129  1301,6917.865,95.437,541.285,538.175,0.0
52291.0,STARLINK-3773,PAYLOAD,2022-08-16 06:00:02,15.08837951,0.0002387,53.2153,181.5066,52.3042,108.0276,0.00085954,0.00013417,0.0,0 STARLINK-3773,1 52291U 22041AG  22228.25002315  .00013417  00000-0  85954-3 0  9992,2 52291  53.2153 181.5066 0002387  52.3042 108.0276 15.08837951 19251,6917.887,95.438,541.403,538.1,0.0
52291.0,STARLINK-3773,PAYLOAD,2022-08-16 14:00:01,15.08847127,0.0002206,53.2152,180.0089,54.1714,117.6995,-0.0021739,-0.00034727,0.0,0 STARLINK-3773,1 52291U 22041AG  22228.58334491 -.00034727  00000-0 -21739-2 0  9990,2 52291  53.2152 180.0089 0002206  54.1714 117.6995 15.08847127  1302,6917.859,95.437,541.25,538.198,0.0
52291.0,STARLINK-3773,PAYLOAD,2022-08-16 22:00:00,15.08840679,0.0002188,53.2155,178.5123,57.8141,125.6403,9.7556e-05,1.265e-05,0.0,0 STARLINK-3773,1 52291U 22041AG  22228.91667824  .00001265  00000-0  97556-4 0  9997,2 52291  53.2155 178.5123 0002188  57.8141 125.6403 15.08840679 19351,6917.878000000002,95.438,541.257,538.23,0.0
52291.0,STARLINK-3773,PAYLOAD,2022-08-17 16:00:00,15.08810229,0.0002085,53.2151,175.1453,56.2536,243.3012,0.0015645,0.00024679,0.0,0 STARLINK-3773,1 52291U 22041AG  22229.66667824  .00024679  00000-0  15645-2 0  9991,2 52291  53.2151 175.1453 0002085  56.2536 243.3012 15.08810229  1301,6917.971,95.439,541.279,538.394,0.0
52291.0,STARLINK-3773,PAYLOAD,2022-08-18 08:00:01,15.08828313,0.0002207,53.2145,172.1542,52.4315,270.2895,0.0026469,0.00042076,0.0,0 STARLINK-3773,1 52291U 22041AG  22230.33334491  .00042076  00000-0  26469-2 0  9995,2 52291  53.2145 172.1542 0002207  52.4315 270.2895 15.08828313 19567,6917.916,95.438,541.308,538.254,0.0
52291.0,STARLINK-3773,PAYLOAD,2022-08-18 14:00:01,15.08850518,0.000207,53.2146,171.0305,57.2494,184.1699,0.00032493,4.888e-05,0.0,0 STARLINK-3773,1 52291U 22041AG  22230.58334491  .00004888  00000-0  32493-3 0  9996,2 52291  53.2146 171.0305 0002070  57.2494 184.1699 15.08850518  1302,6917.848000000001,95.437,541.145,538.281,0.0
52291.0,STARLINK-3773,PAYLOAD,2022-08-18 22:00:00,15.08883556,0.0002029,53.2146,169.5343,59.9294,193.0894,-0.0034973,-0.00055586,0.0,0 STARLINK-3773,1 52291U 22041AG  22230.91667824 -.00055586  00000-0 -34973-2 0  9999,2 52291  53.2146 169.5343 0002029  59.9294 193.0894 15.08883556  1301,6917.746999999999,95.435,541.016,538.2090000000002,0.0
52291.0,STARLINK-3773,PAYLOAD,2022-08-19 14:00:01,15.08815757,0.0001911,53.2141,166.5412,55.9948,220.241,0.00064369,9.964e-05,0.0,0 STARLINK-3773,1 52291U 22041AG  22231.58334491  .00009964  00000-0  64369-3 0  9994,2 52291  53.2141 166.5412 0001911  55.9948 220.2410 15.08815757 19754,6917.954000000002,95.439,541.1419999999998,538.497,0.0
52291.0,STARLINK-3773,PAYLOAD,2022-08-19 22:00:00,15.08840991,0.000193,53.214,165.0452,58.6057,229.1928,-0.00090925,-0.0001473,0.0,0 STARLINK-3773,1 52291U 22041AG  22231.91667824 -.00014730  00000-0 -90925-3 0  9996,2 52291  53.2140 165.0452 0001930  58.6057 229.1928 15.08840991  1305,6917.877,95.437,541.078,538.4069999999998,0.0
52291.0,STARLINK-3773,PAYLOAD,2022-08-20 14:00:01,15.08806626,0.0001858,53.2138,162.05200000000005,55.9283,255.0423,0.0012725999999999,0.00020005,0.0,0 STARLINK-3773,1 52291U 22041AG  22232.58334491  .00020005  00000-0  12726-2 0  9993,2 52291  53.2138 162.0520 0001858  55.9283 255.0423 15.08806626  1300,6917.982,95.44,541.133,538.562,0.0
52291.0,STARLINK-3773,PAYLOAD,2022-08-20 22:00:00,15.08836544,0.0001928,53.2139,160.556,57.655,264.8707,-0.0010392,-0.00016788,0.0,0 STARLINK-3773,1 52291U 22041AG  22232.91667824 -.00016788  00000-0 -10392-2 0  9991,2 52291  53.2139 160.5560 0001928  57.6550 264.8707 15.08836544  1307,6917.891,95.438,541.09,538.422,0.0
52291.0,STARLINK-3773,PAYLOAD,2022-08-21 14:00:01,15.08820879,0.0001946,53.214,157.5627,57.081,288.6116,0.0016879999999999,0.00026665,0.0,0 STARLINK-3773,1 52291U 22041AG  22233.58334491  .00026665  00000-0  16880-2 0  9997,2 52291  53.2140 157.5627 0001946  57.0810 288.6116 15.08820879  1304,6917.939,95.439,541.15,538.4580000000002,0.0
